[Satellite]
VERSION=1.1
NAME=FOX-1D (AO-92)
NICKNAME=FOX-1D (AO-92)
TLE1=1 43137U 18004AC  19317.73217739  .00001006  00000-0  44859-4 0  9992
TLE2=2 43137  97.4727  25.0949 0010903  96.6280 263.6199 15.23708351102036
STATUS=0
